[{"OBJECT_NAME":"OBJECT L","OBJECT_ID":"2023-085L","EPOCH":"2026-03-09T23:02:21.999840","MEAN_MOTION":15.29079976,"ECCENTRICITY":0.0005428,"INCLINATION":97.486,"RA_OF_ASC_NODE":178.8598,"ARG_OF_PERICENTER":50.8528,"MEAN_ANOMALY":309.3193,"EPHEMERIS_TYPE":0,"CLASSIFICATION_TYPE":"U","NORAD_CAT_ID":57014,"ELEMENT_SET_NO":999,"REV_AT_EPOCH":15144,"BSTAR":0.00063462603,"MEAN_MOTION_DOT":0.00017871,"MEAN_MOTION_DDOT":0},{"OBJECT_NAME":"STARLINK-34924","OBJECT_ID":"2025-195M","EPOCH":"2026-03-09T20:14:46.901760","MEAN_MOTION":15.3020956,"ECCENTRICITY":0.00013263,"INCLINATION":53.1607,"RA_OF_ASC_NODE":257.7223,"ARG_OF_PERICENTER":75.7,"MEAN_ANOMALY":284.4148,"EPHEMERIS_TYPE":0,"CLASSIFICATION_TYPE":"U","NORAD_CAT_ID":65469,"ELEMENT_SET_NO":999,"REV_AT_EPOCH":3001,"BSTAR":0.00096057803,"MEAN_MOTION_DOT":0.00028207,"MEAN_MOTION_DDOT":0}]
